STARLINK-30494          
1 57970U 23151G   26068.36049035 -.00001272  00000+0 -35691-4 0  9993
2 57970  43.0027 192.4566 0001155 241.5536 118.5200 15.28417441137406
STARLINK-32672          
1 62195U 24229D   26068.95917960  .00015690  00000+0  57823-3 0  9998
2 62195  43.0028 269.1028 0002832 248.7074 111.3475 15.27591604 70602
